{
  "version": 1,
  "fetchedAt": "2026-06-16T16:59:36.124Z",
  "source": "celestrak-gp",
  "counts": {
    "station": 25,
    "satellite": 400,
    "debris": 250
  },
  "objects": [
    {
      "id": "41601",
      "name": "SKYSAT-C1",
      "noradId": 41601,
      "line1": "1 41601U 16040C   26167.04392882  .00007972  00000+0  22744-3 0  9997",
      "line2": "2 41601  96.9556 198.8256 0003590  60.3015 299.8587 15.36285391557698",
      "category": "satellite"
    },
    {
      "id": "41603",
      "name": "LAPAN-A3",
      "noradId": 41603,
      "line1": "1 41603U 16040E   26167.27738226  .00002939  00000+0  94134-4 0  9991",
      "line2": "2 41603  97.1486 163.4530 0010987  28.8573 331.3275 15.33099705554674",
      "category": "satellite"
    },
    {
      "id": "41727",
      "name": "GAOFEN-3",
      "noradId": 41727,
      "line1": "1 41727U 16049A   26167.32081785  .00000260  00000+0  92221-4 0  9994",
      "line2": "2 41727  98.4003 175.1198 0001386  99.6570 260.4776 14.42216219518528",
      "category": "satellite"
    },
    {
      "id": "41771",
      "name": "SKYSAT-C4",
      "noradId": 41771,
      "line1": "1 41771U 16058B   26167.03976814  .00014609  00000+0  27566-3 0  9998",
      "line2": "2 41771  96.9166 188.8600 0001267 131.8208 228.3152 15.48556256545294",
      "category": "satellite"
    },
    {
      "id": "41772",
      "name": "SKYSAT-C5",
      "noradId": 41772,
      "line1": "1 41772U 16058C   26166.66926374  .00006527  00000+0  19783-3 0  9995",
      "line2": "2 41772  97.0467 207.3773 0001199 328.6214  31.4958 15.34452064543513",
      "category": "satellite"
    },
    {
      "id": "41773",
      "name": "SKYSAT-C2",
      "noradId": 41773,
      "line1": "1 41773U 16058D   26167.02644232  .00010400  00000+0  24536-3 0  9994",
      "line2": "2 41773  97.0163 189.1649 0004750  73.2340 286.9429 15.42049192544878",
      "category": "satellite"
    },
    {
      "id": "41774",
      "name": "SKYSAT-C3",
      "noradId": 41774,
      "line1": "1 41774U 16058E   26167.04764427  .00021082  00000+0  34533-3 0  9992",
      "line2": "2 41774  96.8999 197.9382 0001526  92.3501 267.7928 15.52496769545939",
      "category": "satellite"
    },
    {
      "id": "41785",
      "name": "ALSAT-1B",
      "noradId": 41785,
      "line1": "1 41785U 16059C   26167.28869312  .00000371  00000+0  66219-4 0  9995",
      "line2": "2 41785  97.7743 176.0910 0008024 223.6885 136.3689 14.72274781520440",
      "category": "satellite"
    },
    {
      "id": "41787",
      "name": "PATHFINDER 1",
      "noradId": 41787,
      "line1": "1 41787U 16059E   26167.31840730  .00000478  00000+0  91791-4 0  9995",
      "line2": "2 41787  97.8167 166.6339 0027729 206.4168 153.5626 14.67662335519584",
      "category": "satellite"
    },
    {
      "id": "41790",
      "name": "SCATSAT 1",
      "noradId": 41790,
      "line1": "1 41790U 16059H   26166.92828860  .00000925  00000+0  12836-3 0  9994",
      "line2": "2 41790  98.1191 230.6814 0053342 251.6526 107.8878 14.79523114101402",
      "category": "satellite"
    },
    {
      "id": "41875",
      "name": "GOKTURK 1A",
      "noradId": 41875,
      "line1": "1 41875U 16073A   26167.28808212  .00000322  00000+0  72261-4 0  9993",
      "line2": "2 41875  98.1260  61.9773 0001443  75.4065 284.7297 14.62774061508690",
      "category": "satellite"
    },
    {
      "id": "41877",
      "name": "RESOURCESAT-2A",
      "noradId": 41877,
      "line1": "1 41877U 16074A   26167.29659437 -.00000115  00000+0 -32085-4 0  9992",
      "line2": "2 41877  98.7533 240.8081 0003348  85.8116 274.3444 14.21615648494175",
      "category": "satellite"
    },
    {
      "id": "41948",
      "name": "CARTOSAT-2D",
      "noradId": 41948,
      "line1": "1 41948U 17008A   26167.30217674  .00003973  00000+0  19127-3 0  9998",
      "line2": "2 41948  97.4108 226.6247 0003913 232.5415 127.5464 15.19330220517440",
      "category": "satellite"
    },
    {
      "id": "42063",
      "name": "SENTINEL-2B",
      "noradId": 42063,
      "line1": "1 42063U 17013A   26167.29840035  .00000031  00000+0  28570-4 0  9999",
      "line2": "2 42063  98.5697 242.0853 0001180  87.3876 272.7442 14.30816698484510",
      "category": "satellite"
    },
    {
      "id": "42767",
      "name": "CARTOSAT-2E",
      "noradId": 42767,
      "line1": "1 42767U 17036C   26167.32004947  .00003338  00000+0  16163-3 0  9990",
      "line2": "2 42767  97.4272 227.1368 0002554 324.0959  36.0104 15.19247849498012",
      "category": "satellite"
    },
    {
      "id": "42920",
      "name": "FORMOSAT-5",
      "noradId": 42920,
      "line1": "1 42920U 17049A   26167.22534295  .00000135  00000+0  45133-4 0  9990",
      "line2": "2 42920  98.2254 242.5564 0012691  87.0189 273.2458 14.50898575466536",
      "category": "satellite"
    },
    {
      "id": "42969",
      "name": "SENTINEL-5P",
      "noradId": 42969,
      "line1": "1 42969U 17064A   26167.28556286  .00000033  00000+0  36877-4 0  9992",
      "line2": "2 42969  98.7925 109.4232 0000958  84.5131 275.6155 14.19518831449433",
      "category": "satellite"
    },
    {
      "id": "42987",
      "name": "SKYSAT-C11",
      "noradId": 42987,
      "line1": "1 42987U 17068A   26166.90109826  .00023112  00000+0  31148-3 0  9996",
      "line2": "2 42987  97.4350 315.6753 0000694  90.1959 269.9376 15.57835924483042",
      "category": "satellite"
    },
    {
      "id": "42988",
      "name": "SKYSAT-C10",
      "noradId": 42988,
      "line1": "1 42988U 17068B   26167.31428873  .00007546  00000+0  22732-3 0  9991",
      "line2": "2 42988  97.4508 304.1523 0001117  96.3073 263.8298 15.34625982482223",
      "category": "satellite"
    },
    {
      "id": "42989",
      "name": "SKYSAT-C9",
      "noradId": 42989,
      "line1": "1 42989U 17068C   26167.13545637  .00011304  00000+0  27090-3 0  9999",
      "line2": "2 42989  97.4428 304.8965 0009391 136.1768 224.0226 15.41538752482594",
      "category": "satellite"
    },
    {
      "id": "42990",
      "name": "SKYSAT-C8",
      "noradId": 42990,
      "line1": "1 42990U 17068D   26167.28696942  .00008703  00000+0  24303-3 0  9996",
      "line2": "2 42990  97.4525 303.9212 0001464  95.9907 264.1504 15.36961346482170",
      "category": "satellite"
    },
    {
      "id": "42991",
      "name": "SKYSAT-C7",
      "noradId": 42991,
      "line1": "1 42991U 17068E   26166.88991137  .00008529  00000+0  23848-3 0  9995",
      "line2": "2 42991  97.4534 304.5080 0007191 110.3101 249.8916 15.36904194482177",
      "category": "satellite"
    },
    {
      "id": "42992",
      "name": "SKYSAT-C6",
      "noradId": 42992,
      "line1": "1 42992U 17068F   26166.90753380  .00007712  00000+0  23542-3 0  9999",
      "line2": "2 42992  97.4568 304.5004 0004356 140.9315 219.2243 15.34191902482129",
      "category": "satellite"
    },
    {
      "id": "43111",
      "name": "CARTOSAT-2F",
      "noradId": 43111,
      "line1": "1 43111U 18004A   26167.22047321  .00003995  00000+0  19302-3 0  9999",
      "line2": "2 43111  97.4791 226.8641 0000547 215.7817 144.3381 15.19210431467182",
      "category": "satellite"
    },
    {
      "id": "43259",
      "name": "GAOFEN-1 02",
      "noradId": 43259,
      "line1": "1 43259U 18031A   26167.28193394  .00000831  00000+0  12688-3 0  9996",
      "line2": "2 43259  98.0530 229.8116 0003875  36.4538 323.6935 14.76456513442565",
      "category": "satellite"
    },
    {
      "id": "43260",
      "name": "GAOFEN-1 03",
      "noradId": 43260,
      "line1": "1 43260U 18031B   26167.32786100  .00000624  00000+0  97021-4 0  9991",
      "line2": "2 43260  98.0517 229.7159 0003759  80.7674 279.3961 14.76468118442562",
      "category": "satellite"
    },
    {
      "id": "43262",
      "name": "GAOFEN-1 04",
      "noradId": 43262,
      "line1": "1 43262U 18031D   26167.16799045  .00000478  00000+0  76072-4 0  9997",
      "line2": "2 43262  98.0533 229.7469 0002239  82.9600 277.1864 14.76478078442532",
      "category": "satellite"
    },
    {
      "id": "43437",
      "name": "SENTINEL-3B",
      "noradId": 43437,
      "line1": "1 43437U 18039A   26167.06762833  .00000075  00000+0  49012-4 0  9990",
      "line2": "2 43437  98.6250 234.6160 0000723  87.1563 272.9700 14.26734391423968",
      "category": "satellite"
    },
    {
      "id": "43461",
      "name": "GAOFEN-5 01",
      "noradId": 43461,
      "line1": "1 43461U 18043A   26167.17116141  .00000272  00000+0  65958-4 0  9995",
      "line2": "2 43461  98.4569 138.7360 0003028  85.0469 275.1076 14.60604846431548",
      "category": "satellite"
    },
    {
      "id": "43484",
      "name": "GAOFEN-6",
      "noradId": 43484,
      "line1": "1 43484U 18048A   26166.85139237  .00000304  00000+0  50615-4 0  9990",
      "line2": "2 43484  97.8709 229.6314 0011693 171.3993 188.7420 14.76597001433195",
      "category": "satellite"
    }
  ]
}